ASTRA 2E                
1 39285U 13056A   26187.72297889  .00000165  00000+0  00000+0 0  9998
2 39285   0.0686 321.5269 0002546 151.8153 100.1238  1.00269632 46619
FM-6                    
1 39360U 13058A   26187.69427066  .00000000  00000+0  00000+0 0  9990
2 39360   0.0444  68.1650 0002781 116.5662 233.5520  1.00271123 46261
RADUGA-1M 3             
1 39375U 13062A   26187.81778852  .00000165  00000+0  00000+0 0  9999
2 39375   6.0048  72.1028 0001879 276.5963 265.4807  1.00272015 46303
SES-8                   
1 39460U 13071A   26187.30831630 -.00000255  00000+0  00000+0 0  9993
2 39460   0.0339 270.0506 0002852 194.5126  25.7275  1.00270972 44626
INMARSAT 5-F1           
1 39476U 13073A   26187.65844089  .00000042  00000+0  00000+0 0  9995
2 39476   0.0205  35.2308 0000693 297.2323 251.8522  1.00272049 45778
TKSAT-1 (TUPAC KATARI)  
1 39481U 13075A   26187.66997086 -.00000180  00000+0  00000+0 0  9994
2 39481   0.0412 124.5272 0002542 335.9331 338.1664  1.00269533 45792
EXPRESS-AM5             
1 39487U 13077A   26186.31924736 -.00000267  00000+0  00000+0 0  9991
2 39487   0.0290 270.1698 0000259 160.4646 107.6421  1.00272154 46542
GSAT-14                 
1 39498U 14001A   26187.87457674 -.00000062  00000+0  00000+0 0  9998
2 39498   0.0231 269.0824 0001521 299.5320 105.0610  1.00270804 45577
THAICOM 6               
1 39500U 14002A   26187.87544340 -.00000106  00000+0  00000+0 0  9999
2 39500   0.0676 105.6471 0004621  15.8921 196.9699  1.00270097 45656
TDRS 12                 
1 39504U 14004A   26187.85174990 -.00000257  00000+0  00000+0 0  9990
2 39504   3.9957  19.3899 0003964 202.7564 328.3776  1.00275791 44470
ABS-2                   
1 39508U 14006A   26187.85243909 -.00000071  00000+0  00000+0 0  9997
2 39508   0.0328  77.7092 0003561  12.3873 216.5274  1.00271428 45473
ATHENA-FIDUS            
1 39509U 14006B   26187.72479889  .00000169  00000+0  00000+0 0  9999
2 39509   0.0369  96.8645 0001477  22.5820 103.9791  1.00272203 45288
TURKSAT 4A              
1 39522U 14007A   26187.79171719  .00000161  00000+0  00000+0 0  9995
2 39522   0.0771 282.5230 0000849 336.3016 352.9515  1.00270381 45161
EXPRESS-AT1             
1 39612U 14010A   26187.87275674  .00000017  00000+0  00000+0 0  9993
2 39612   0.3053  85.5053 0004600  48.7449 169.5707  1.00308426 45015
EXPRESS-AT2             
1 39613U 14010B   26187.44305932  .00000000  00000+0  00000+0 0  9990
2 39613   0.0202  27.1395 0000178 225.9114 246.8854  1.00273339 44693
AMAZONAS 4A             
1 39616U 14011A   26187.84524986 -.00000238  00000+0  00000+0 0  9994
2 39616   0.0630 206.8700 0004654 284.7396  23.5126  1.00272699 44910
ASTRA 5B                
1 39617U 14011B   26187.85725924  .00000152  00000+0  00000+0 0  9995
2 39617   0.0693 307.2462 0001938 160.3101 149.3872  1.00270600 44865
IRNSS-1B                
1 39635U 14017A   26186.73010079  .00000137  00000+0  00000+0 0  9998
2 39635  28.8929 240.0829 0022969 195.5386 165.9835  1.00272765 44988
LUCH-5V                 
1 39727U 14023A   26187.73602066 -.00000256  00000+0  00000+0 0  9994
2 39727   5.1783  69.5499 0002699  63.0343 151.7961  1.00268207 44555
KAZSAT-3                
1 39728U 14023B   26187.87145671  .00000076  00000+0  00000+0 0  9993
2 39728   0.0111 343.5049 0000118 310.6923   2.8764  1.00271560 42652
EUTELSAT 3B             
1 39773U 14030A   26187.57525102  .00000035  00000+0  00000+0 0  9994
2 39773   0.0623  14.0468 0003992  89.0007  31.6884  1.00272337 44263
ASIASAT 8 (AMOS-7)      
1 40107U 14046A   26187.81857875 -.00000318  00000+0  00000+0 0  9991
2 40107   0.0246 286.7035 0001488 177.4781 220.6181  1.00272012102348
ASIASAT 6               
1 40141U 14052A   26187.81458603 -.00000347  00000+0  00000+0 0  9994
2 40141   0.0164 296.6942 0000768 199.3486 201.9187  1.00271618 43272
OPTUS 10                
1 40146U 14054A   26187.81950975 -.00000133  00000+0  00000+0 0  9993
2 40146   0.1176  16.1282 0002018  91.5199 268.1692  1.00269847 43229
MEASAT-3B               
1 40147U 14054B   26187.84136514 -.00000226  00000+0  00000+0 0  9995
2 40147   0.0286  29.6079 0002542  60.6368 228.9408  1.00270011 43102
HIMAWARI-8              
1 40267U 14060A   26187.54003347 -.00000261  00000+0  00000+0 0  9998
2 40267   0.0149  40.4070 0000906  82.0177 137.1769  1.00270059 42958
IRNSS-1C                
1 40269U 14061A   26187.80503634 -.00000150  00000+0  00000+0 0  9991
2 40269   6.5665  88.5574 0022129   4.5724 204.4639  1.00273671 42883
INTELSAT 30 (IS-30)     
1 40271U 14062A   26187.84108985 -.00000136  00000+0  00000+0 0  9993
2 40271   0.0158  45.6571 0001513 342.5008 104.4107  1.00271275  6996
ARSAT 1                 
1 40272U 14062B   26187.77441418 -.00000245  00000+0  00000+0 0  9998
2 40272   0.0288 303.9410 0001918 159.4802  28.3157  1.00271293 42820
EUTELSAT 53A            
1 40277U 14064A   26186.24975387  .00000112  00000+0  00000+0 0  9995
2 40277   0.0170 300.9294 0001290 247.7332 237.4945  1.00269059 41749
GSAT-16                 
1 40332U 14078A   26187.87076338  .00000100  00000+0  00000+0 0  9997
2 40332   0.0384 262.5412 0007515 187.8789 202.9750  1.00271044 42300
DIRECTV 14              
1 40333U 14078B   26187.55505758 -.00000111  00000+0  00000+0 0  9999
2 40333   0.0116  39.1776 0000157 344.3419   1.5943  1.00274416 42235
