OBJECT_NAME,OBJECT_ID,EPOCH,MEAN_MOTION,ECCENTRICITY,INCLINATION,RA_OF_ASC_NODE,ARG_OF_PERICENTER,MEAN_ANOMALY,EPHEMERIS_TYPE,CLASSIFICATION_TYPE,NORAD_CAT_ID,ELEMENT_SET_NO,REV_AT_EPOCH,BSTAR,MEAN_MOTION_DOT,MEAN_MOTION_DDOT
ASTRA 2E,2013-056A,2026-07-06T17:21:05.376096,1.00269632,.0002546,0.0686,321.5269,151.8153,100.1238,0,U,39285,999,4661,0,.165E-5,0
FM-6,2013-058A,2026-07-06T16:39:44.985024,1.00271123,.0002781,0.0444,68.1650,116.5662,233.5520,0,U,39360,999,4626,0,0,0
RADUGA-1M 3,2013-062A,2026-07-06T19:37:36.928128,1.00272015,.0001879,6.0048,72.1028,276.5963,265.4807,0,U,39375,999,4630,0,.165E-5,0
SES-8,2013-071A,2026-07-06T07:23:58.528320,1.00270972,.00028527,0.0339,270.0506,194.5126,25.7275,0,U,39460,999,4462,0,-.255E-5,0
INMARSAT 5-F1,2013-073A,2026-07-06T15:48:09.292896,1.00272049,.0000693,0.0205,35.2308,297.2323,251.8522,0,U,39476,999,4577,0,.42E-6,0
TKSAT-1 (TUPAC KATARI),2013-075A,2026-07-06T16:04:45.482304,1.00269533,.0002542,0.0412,124.5272,335.9331,338.1664,0,U,39481,999,4579,0,-.18E-5,0
EXPRESS-AM5,2013-077A,2026-07-05T07:39:42.971904,1.00272154,.0000259,0.0290,270.1698,160.4646,107.6421,0,U,39487,999,4654,0,-.267E-5,0
GSAT-14,2014-001A,2026-07-06T20:59:23.430336,1.00270804,.0001521,0.0231,269.0824,299.5320,105.0610,0,U,39498,999,4557,0,-.62E-6,0
THAICOM 6,2014-002A,2026-07-06T21:00:38.309760,1.00270097,.0004621,0.0676,105.6471,15.8921,196.9699,0,U,39500,999,4565,0,-.106E-5,0
TDRS 12,2014-004A,2026-07-06T20:26:31.191360,1.00275791,.0003964,3.9957,19.3899,202.7564,328.3776,0,U,39504,999,4447,0,-.257E-5,0
ABS-2,2014-006A,2026-07-06T20:27:30.737376,1.00271428,.0003561,0.0328,77.7092,12.3873,216.5274,0,U,39508,999,4547,0,-.71E-6,0
ATHENA-FIDUS,2014-006B,2026-07-06T17:23:42.624096,1.00272203,.0001477,0.0369,96.8645,22.5820,103.9791,0,U,39509,999,4528,0,.169E-5,0
TURKSAT 4A,2014-007A,2026-07-06T19:00:04.365216,1.00270381,.0000849,0.0771,282.5230,336.3016,352.9515,0,U,39522,999,4516,0,.161E-5,0
EXPRESS-AT1,2014-010A,2026-07-06T20:56:46.182336,1.00308426,.00046,0.3053,85.5053,48.7449,169.5707,0,U,39612,999,4501,0,.17E-6,0
EXPRESS-AT2,2014-010B,2026-07-06T10:38:00.325248,1.00273339,.00001782,0.0202,27.1395,225.9114,246.8854,0,U,39613,999,4469,0,0,0
AMAZONAS 4A,2014-011A,2026-07-06T20:17:09.587904,1.00272699,.0004654,0.0630,206.8700,284.7396,23.5126,0,U,39616,999,4491,0,-.238E-5,0
ASTRA 5B,2014-011B,2026-07-06T20:34:27.198336,1.00270600,.0001938,0.0693,307.2462,160.3101,149.3872,0,U,39617,999,4486,0,.152E-5,0
IRNSS-1B,2014-017A,2026-07-05T17:31:20.708256,1.00272765,.00229695,28.8929,240.0829,195.5386,165.9835,0,U,39635,999,4498,0,.137E-5,0
LUCH-5V,2014-023A,2026-07-06T17:39:52.185024,1.00268207,.0002699,5.1783,69.5499,63.0343,151.7961,0,U,39727,999,4455,0,-.256E-5,0
KAZSAT-3,2014-023B,2026-07-06T20:54:53.859744,1.00271560,.0000118,0.0111,343.5049,310.6923,2.8764,0,U,39728,999,4265,0,.76E-6,0
EUTELSAT 3B,2014-030A,2026-07-06T13:48:21.688128,1.00272337,.0003992,0.0623,14.0468,89.0007,31.6884,0,U,39773,999,4426,0,.35E-6,0
ASIASAT 8 (AMOS-7),2014-046A,2026-07-06T19:38:45.204000,1.00272012,.0001488,0.0246,286.7035,177.4781,220.6181,0,U,40107,999,10234,0,-.318E-5,0
ASIASAT 6,2014-052A,2026-07-06T19:33:00.232992,1.00271618,.0000768,0.0164,296.6942,199.3486,201.9187,0,U,40141,999,4327,0,-.347E-5,0
OPTUS 10,2014-054A,2026-07-06T19:40:05.642400,1.00269847,.0002018,0.1176,16.1282,91.5199,268.1692,0,U,40146,999,4322,0,-.133E-5,0
MEASAT-3B,2014-054B,2026-07-06T20:11:33.948096,1.00270011,.0002542,0.0286,29.6079,60.6368,228.9408,0,U,40147,999,4310,0,-.226E-5,0
HIMAWARI-8,2014-060A,2026-07-06T12:57:38.891808,1.00270059,.00009061,0.0149,40.4070,82.0177,137.1769,0,U,40267,999,4295,0,-.261E-5,0
IRNSS-1C,2014-061A,2026-07-06T19:19:15.139776,1.00273671,.0022129,6.5665,88.5574,4.5724,204.4639,0,U,40269,999,4288,0,-.15E-5,0
INTELSAT 30 (IS-30),2014-062A,2026-07-06T20:11:10.163040,1.00271275,.0001513,0.0158,45.6571,342.5008,104.4107,0,U,40271,999,699,0,-.136E-5,0
ARSAT 1,2014-062B,2026-07-06T18:35:09.385152,1.00271293,.0001918,0.0288,303.9410,159.4802,28.3157,0,U,40272,999,4282,0,-.245E-5,0
EUTELSAT 53A,2014-064A,2026-07-05T05:59:38.734368,1.00269059,.000129,0.0170,300.9294,247.7332,237.4945,0,U,40277,999,4174,0,.112E-5,0
GSAT-16,2014-078A,2026-07-06T20:53:53.956032,1.00271044,.0007515,0.0384,262.5412,187.8789,202.9750,0,U,40332,999,4230,0,.1E-5,0
DIRECTV 14,2014-078B,2026-07-06T13:19:16.974912,1.00274416,.0000157,0.0116,39.1776,344.3419,1.5943,0,U,40333,999,4223,0,-.111E-5,0
